{
    "links": {
        "self": "http://www.neowsapp.com/rest/v1/neo/3872643?api_key=iIulBulltgU6a56xZRHN4H3l9WmuAYTsLGpBGhQ2"
    },
    "id": "3872643",
    "neo_reference_id": "3872643",
    "name": "(2019 SP8)",
    "designation": "2019 SP8",
    "nasa_jpl_url": "http://ssd.jpl.nasa.gov/sbdb.cgi?sstr=3872643",
    "absolute_magnitude_h": 25.4,
    "estimated_diameter": {
        "kilometers": {
            "estimated_diameter_min": 0.022108281,
            "estimated_diameter_max": 0.0494356193
        },
        "meters": {
            "estimated_diameter_min": 22.1082810359,
            "estimated_diameter_max": 49.435619262
        },
        "miles": {
            "estimated_diameter_min": 0.0137374447,
            "estimated_diameter_max": 0.0307178602
        },
        "feet": {
            "estimated_diameter_min": 72.5337327539,
            "estimated_diameter_max": 162.1903570994
        }
    },
    "is_potentially_hazardous_asteroid": false,
    "close_approach_data": [
        {
            "close_approach_date": "2019-09-23",
            "close_approach_date_full": "2019-Sep-23 05:10",
            "epoch_date_close_approach": 1569215400000,
            "relative_velocity": {
                "kilometers_per_second": "7.6721833903",
                "kilometers_per_hour": "27619.8602050388",
                "miles_per_hour": "17161.9070257365"
            },
            "miss_distance": {
                "astronomical": "0.0641428399",
                "lunar": "24.9515647211",
                "kilometers": "9595632.224791013",
                "miles": "5962449.3820334594"
            },
            "orbiting_body": "Earth"
        }
    ],
    "orbital_data": {
        "orbit_id": "3",
        "orbit_determination_date": "2019-11-07 01:46:55",
        "first_observation_date": "2019-09-29",
        "last_observation_date": "2019-10-08",
        "data_arc_in_days": 9,
        "observations_used": 33,
        "orbit_uncertainty": "8",
        "minimum_orbit_intersection": ".0584728",
        "jupiter_tisserand_invariant": "3.465",
        "epoch_osculation": "2458757.5",
        "eccentricity": ".5255772452876276",
        "semi_major_axis": "2.203066331617584",
        "inclination": "4.993563041523107",
        "ascending_node_longitude": "199.0596740434383",
        "orbital_period": "1194.37247701852",
        "perihelion_distance": "1.045184797860095",
        "perihelion_argument": "145.7187564527178",
        "aphelion_distance": "3.360947865375073",
        "perihelion_time": "2458737.687876539569",
        "mean_anomaly": "5.97164166371239",
        "mean_motion": ".301413509543236",
        "equinox": "J2000",
        "orbit_class": {
            "orbit_class_type": "AMO",
            "orbit_class_description": "Near-Earth asteroid orbits similar to that of 1221 Amor",
            "orbit_class_range": "1.017 AU < q (perihelion) < 1.3 AU"
        }
    },
    "is_sentry_object": false
}